{
  "type": "FeatureCollection",
  "features": [
    {
      "type": "Feature",
      "properties": {
        "norad_id": 31072,
        "name": "FENGYUN 1C DEB",
        "group": "fengyun-1c-debris",
        "lat": -75.25684480021172,
        "lon": 144.05625609440207,
        "alt_km": 963.1650948386987,
        "timestamp": "2025-12-22T16:55:17.743784+00:00",
        "meta_object_name": "FENGYUN 1C DEB",
        "meta_object_id": "1999-025BFS",
        "meta_epoch": "2025-12-22T05:36:50.483232",
        "meta_mean_motion": 14.25515338,
        "meta_eccentricity": 0.02103102,
        "meta_inclination": 99.3319,
        "meta_ra_of_asc_node": 2.2271,
        "meta_arg_of_pericenter": 70.7103,
        "meta_mean_anomaly": 291.669,
        "meta_ephemeris_type": 0,
        "meta_classification_type": "U",
        "meta_norad_cat_id": 31072,
        "meta_element_set_no": 999,
        "meta_rev_at_epoch": 96778,
        "meta_bstar": 0.00058124662,
        "meta_mean_motion_dot": 1.68e-05,
        "meta_mean_motion_ddot": 0,
        "tle_line1": "1 31072U 99025BFS 25356.23391763  .00001680  00000+0  58125-3 0  9991",
        "tle_line2": "2 31072  99.3319   2.2271 0210310  70.7103 291.6690 14.25515338967785"
      },
      "geometry": {
        "type": "Point",
        "coordinates": [
          144.05625609440207,
          -75.25684480021172
        ]
      }
    },
    {
      "type": "Feature",
      "properties": {
        "norad_id": 31073,
        "name": "FENGYUN 1C DEB",
        "group": "fengyun-1c-debris",
        "lat": -47.99136583369538,
        "lon": 16.50492789151806,
        "alt_km": 787.3199635757501,
        "timestamp": "2025-12-22T16:55:17.743794+00:00",
        "meta_object_name": "FENGYUN 1C DEB",
        "meta_object_id": "1999-025BFT",
        "meta_epoch": "2025-12-18T09:02:29.976576",
        "meta_mean_motion": 14.248255,
        "meta_eccentricity": 0.00450963,
        "meta_inclination": 99.2192,
        "meta_ra_of_asc_node": 202.3511,
        "meta_arg_of_pericenter": 269.7915,
        "meta_mean_anomaly": 89.8095,
        "meta_ephemeris_type": 0,
        "meta_classification_type": "U",
        "meta_norad_cat_id": 31073,
        "meta_element_set_no": 999,
        "meta_rev_at_epoch": 97163,
        "meta_bstar": 0.0009478953,
        "meta_mean_motion_dot": 2.186e-05,
        "meta_mean_motion_ddot": 0,
        "tle_line1": "1 31073U 99025BFT 25352.37673584  .00002186  00000+0  94790-3 0  9997",
        "tle_line2": "2 31073  99.2192 202.3511 0045096 269.7915  89.8095 14.24825500971631"
      },
      "geometry": {
        "type": "Point",
        "coordinates": [
          16.50492789151806,
          -47.99136583369538
        ]
      }
    },
    {
      "type": "Feature",
      "properties": {
        "norad_id": 31074,
        "name": "FENGYUN 1C DEB",
        "group": "fengyun-1c-debris",
        "lat": 39.461587133059936,
        "lon": 99.19352531256213,
        "alt_km": 849.5279471070626,
        "timestamp": "2025-12-22T16:55:17.743804+00:00",
        "meta_object_name": "FENGYUN 1C DEB",
        "meta_object_id": "1999-025BFU",
        "meta_epoch": "2025-12-18T17:10:14.920608",
        "meta_mean_motion": 14.14282346,
        "meta_eccentricity": 0.00866655,
        "meta_inclination": 98.9597,
        "meta_ra_of_asc_node": 267.7307,
        "meta_arg_of_pericenter": 248.9411,
        "meta_mean_anomaly": 110.2477,
        "meta_ephemeris_type": 0,
        "meta_classification_type": "U",
        "meta_norad_cat_id": 31074,
        "meta_element_set_no": 999,
        "meta_rev_at_epoch": 95664,
        "meta_bstar": 0.001489856,
        "meta_mean_motion_dot": 2.905e-05,
        "meta_mean_motion_ddot": 0,
        "tle_line1": "1 31074U 99025BFU 25352.71545047  .00002905  00000+0  14899-2 0  9998",
        "tle_line2": "2 31074  98.9597 267.7307 0086665 248.9411 110.2477 14.14282346956643"
      },
      "geometry": {
        "type": "Point",
        "coordinates": [
          99.19352531256213,
          39.461587133059936
        ]
      }
    },
    {
      "type": "Feature",
      "properties": {
        "norad_id": 31078,
        "name": "FENGYUN 1C DEB",
        "group": "fengyun-1c-debris",
        "lat": 30.460379526130883,
        "lon": 51.93067617272473,
        "alt_km": 814.5343408549352,
        "timestamp": "2025-12-22T16:55:17.743814+00:00",
        "meta_object_name": "FENGYUN 1C DEB",
        "meta_object_id": "1999-025BFY",
        "meta_epoch": "2025-12-15T10:54:33.357600",
        "meta_mean_motion": 14.22084734,
        "meta_eccentricity": 0.0117132,
        "meta_inclination": 98.8675,
        "meta_ra_of_asc_node": 49.9086,
        "meta_arg_of_pericenter": 141.0899,
        "meta_mean_anomaly": 232.8229,
        "meta_ephemeris_type": 0,
        "meta_classification_type": "U",
        "meta_norad_cat_id": 31078,
        "meta_element_set_no": 999,
        "meta_rev_at_epoch": 96931,
        "meta_bstar": 0.00048192939,
        "meta_mean_motion_dot": 1.1e-05,
        "meta_mean_motion_ddot": 0,
        "tle_line1": "1 31078U 99025BFY 25349.45455275  .00001100  00000+0  48193-3 0  9993",
        "tle_line2": "2 31078  98.8675  49.9086 0117132 141.0899 232.8229 14.22084734969318"
      },
      "geometry": {
        "type": "Point",
        "coordinates": [
          51.93067617272473,
          30.460379526130883
        ]
      }
    },
    {
      "type": "Feature",
      "properties": {
        "norad_id": 31081,
        "name": "FENGYUN 1C DEB",
        "group": "fengyun-1c-debris",
        "lat": -37.87478269158403,
        "lon": 19.72479754403712,
        "alt_km": 895.085766383475,
        "timestamp": "2025-12-22T16:55:17.743826+00:00",
        "meta_object_name": "FENGYUN 1C DEB",
        "meta_object_id": "1999-025BGB",
        "meta_epoch": "2025-12-22T06:56:09.474720",
        "meta_mean_motion": 14.06298908,
        "meta_eccentricity": 0.00477515,
        "meta_inclination": 98.7696,
        "meta_ra_of_asc_node": 12.4263,
        "meta_arg_of_pericenter": 203.8331,
        "meta_mean_anomaly": 172.1328,
        "meta_ephemeris_type": 0,
        "meta_classification_type": "U",
        "meta_norad_cat_id": 31081,
        "meta_element_set_no": 999,
        "meta_rev_at_epoch": 96595,
        "meta_bstar": 1.6529319e-05,
        "meta_mean_motion_dot": -1.5e-07,
        "meta_mean_motion_ddot": 0,
        "tle_line1": "1 31081U 99025BGB 25356.28899855 -.00000015  00000+0  16529-4 0  9996",
        "tle_line2": "2 31081  98.7696  12.4263 0047751 203.8331 172.1328 14.06298908965957"
      },
      "geometry": {
        "type": "Point",
        "coordinates": [
          19.72479754403712,
          -37.87478269158403
        ]
      }
    },
    {
      "type": "Feature",
      "properties": {
        "norad_id": 31083,
        "name": "FENGYUN 1C DEB",
        "group": "fengyun-1c-debris",
        "lat": -31.745121751173233,
        "lon": -70.78982883601033,
        "alt_km": 681.3990444940628,
        "timestamp": "2025-12-22T16:55:17.743837+00:00",
        "meta_object_name": "FENGYUN 1C DEB",
        "meta_object_id": "1999-025BGD",
        "meta_epoch": "2025-12-22T01:25:10.165152",
        "meta_mean_motion": 14.62248478,
        "meta_eccentricity": 0.00320161,
        "meta_inclination": 98.6468,
        "meta_ra_of_asc_node": 113.9368,
        "meta_arg_of_pericenter": 276.4951,
        "meta_mean_anomaly": 137.6625,
        "meta_ephemeris_type": 0,
        "meta_classification_type": "U",
        "meta_norad_cat_id": 31083,
        "meta_element_set_no": 999,
        "meta_rev_at_epoch": 97846,
        "meta_bstar": 0.0027103171,
        "meta_mean_motion_dot": 0.00013735,
        "meta_mean_motion_ddot": 0,
        "tle_line1": "1 31083U 99025BGD 25356.05914543  .00013735  00000+0  27103-2 0  9995",
        "tle_line2": "2 31083  98.6468 113.9368 0032016 276.4951 137.6625 14.62248478978465"
      },
      "geometry": {
        "type": "Point",
        "coordinates": [
          -70.78982883601033,
          -31.745121751173233
        ]
      }
    },
    {
      "type": "Feature",
      "properties": {
        "norad_id": 31085,
        "name": "FENGYUN 1C DEB",
        "group": "fengyun-1c-debris",
        "lat": -79.9042271129727,
        "lon": -99.49938070120744,
        "alt_km": 780.8661634966338,
        "timestamp": "2025-12-22T16:55:17.743849+00:00",
        "meta_object_name": "FENGYUN 1C DEB",
        "meta_object_id": "1999-025BGF",
        "meta_epoch": "2025-12-21T12:54:39.896064",
        "meta_mean_motion": 14.30314033,
        "meta_eccentricity": 0.00869239,
        "meta_inclination": 98.9838,
        "meta_ra_of_asc_node": 196.612,
        "meta_arg_of_pericenter": 352.5414,
        "meta_mean_anomaly": 36.8573,
        "meta_ephemeris_type": 0,
        "meta_classification_type": "U",
        "meta_norad_cat_id": 31085,
        "meta_element_set_no": 999,
        "meta_rev_at_epoch": 97842,
        "meta_bstar": 8.750679e-05,
        "meta_mean_motion_dot": 1.89e-06,
        "meta_mean_motion_ddot": 0,
        "tle_line1": "1 31085U 99025BGF 25355.53796176  .00000189  00000+0  87507-4 0  9994",
        "tle_line2": "2 31085  98.9838 196.6120 0086923 352.5414  36.8573 14.30314033978425"
      },
      "geometry": {
        "type": "Point",
        "coordinates": [
          -99.49938070120744,
          -79.9042271129727
        ]
      }
    }
  ]
}